ONEWEB-0247             
1 48777U 21045L   24057.57298939 -.00000035  00000+0 -12784-3 0  9999
2 48777  87.8950  66.7175 0002632  65.7980 294.3425 13.15548882133755
ONEWEB-0245             
1 48778U 21045M   24057.56821901  .00000153  00000+0  37295-3 0  9993
2 48778  87.8942  66.7152 0001666  82.1675 277.9645 13.15550639134858
ONEWEB-0229             
1 48779U 21045N   24057.56347374  .00000172  00000+0  42182-3 0  9993
2 48779  87.8944  66.7084 0002050  84.8866 275.2499 13.15549953133757
ONEWEB-0228             
1 48780U 21045P   24057.57852324 -.00000021  00000+0 -90939-4 0  9991
2 48780  87.8942  66.6833 0001986  86.7276 273.4081 13.15548756133679
ONEWEB-0232             
1 48781U 21045Q   24057.57139541  .00000129  00000+0  30765-3 0  9998
2 48781  87.8936  66.7113 0001989  86.1136 274.0221 13.15550110135118
ONEWEB-0231             
1 48782U 21045R   24057.54919750  .00000226  00000+0  56609-3 0  9997
2 48782  87.8951  66.7284 0002037  80.7242 279.4119 13.15549302133684
ONEWEB-0234             
1 48783U 21045S   24057.49296783  .00000134  00000+0  32267-3 0  9998
2 48783  87.8944  66.7073 0001000 134.5926 225.5286 13.15545197133819
ONEWEB-0238             
1 48784U 21045T   24057.52305927 -.00000071  00000+0 -22353-3 0  9991
2 48784  87.8947  66.7196 0001809  92.8914 267.2424 13.15546884133719
